NORAD_CAT_ID,OBJECT_NAME,OBJECT_TYPE,EPOCH,MEAN_MOTION,ECCENTRICITY,INCLINATION,RA_OF_ASC_NODE,ARG_OF_PERICENTER,MEAN_ANOMALY,BSTAR,MEAN_MOTION_DOT,MEAN_MOTION_DDOT,TLE_LINE0,TLE_LINE1,TLE_LINE2,SEMIMAJOR_AXIS,PERIOD,APOGEE,PERIGEE,DECAYED
53852.0,STARLINK-4797,PAYLOAD,2023-02-17 13:40:08,15.08829003,0.0001118,53.2151,259.7075,82.2663,277.8456,-8.2508e-05,-1.6e-05,0.0,0 STARLINK-4797,1 53852U 22114AL  23048.56954077 -.00001600  00000-0 -82508-4 0  9999,2 53852  53.2151 259.7075 0001118  82.2663 277.8456 15.08829003 24545,6917.914,95.438,540.552,539.006,0.0
53852.0,STARLINK-4797,PAYLOAD,2023-02-17 20:01:41,15.0882874,9.82e-05,53.2159,258.5175,83.2469,276.8635,1.3323e-05,-7.6e-07,0.0,0 STARLINK-4797,1 53852U 22114AL  23048.83450417 -.00000076  00000-0  13323-4 0  9992,2 53852  53.2159 258.5175 0000982  83.2469 276.8635 15.08828740 24044,6917.915,95.438,540.459,539.1,0.0
53852.0,STARLINK-4797,PAYLOAD,2023-02-17 23:12:27,15.08836778,0.0001241,53.2163,257.9245,80.7799,279.3334,-6.047e-05,-1.25e-05,0.0,0 STARLINK-4797,1 53852U 22114AL  23048.96698059 -.00001250  00000-0 -60470-4 0  9993,2 53852  53.2163 257.9245 0001241  80.7799 279.3334 15.08836778 24063,6917.89,95.438,540.614,538.897,0.0
53852.0,STARLINK-4797,PAYLOAD,2023-02-18 13:30:55,15.08840592,0.0001424,53.2163,255.2481,76.5878,283.5273,0.00015999,2.259e-05,0.0,0 STARLINK-4797,1 53852U 22114AL  23049.56314105  .00002259  00000-0  15999-3 0  9990,2 53852  53.2163 255.2481 0001424  76.5878 283.5273 15.08840592 24697,6917.879,95.438,540.729,538.758,0.0
53852.0,STARLINK-4797,PAYLOAD,2023-02-18 19:52:27,15.08844447,0.0001348,53.2173,254.0582,78.3609,281.7535,0.00021782,3.181e-05,0.0,0 STARLINK-4797,1 53852U 22114AL  23049.82809545  .00003181  00000-0  21782-3 0  9998,2 53852  53.2173 254.0582 0001348  78.3609 281.7535 15.08844447 24193,6917.867,95.437,540.664,538.799,0.0
53852.0,STARLINK-4797,PAYLOAD,2023-02-19 13:21:42,15.08838101,0.000125,53.2173,250.7871,81.4985,278.6149,0.00019052,2.745e-05,0.0,0 STARLINK-4797,1 53852U 22114AL  23050.55674041  .00002745  00000-0  19052-3 0  9993,2 53852  53.2173 250.7871 0001250  81.4985 278.6149 15.08838101 24300,6917.886,95.438,540.616,538.886,0.0
53852.0,STARLINK-4797,PAYLOAD,2023-02-19 22:54:00,15.08852955,0.0001235,53.2164,249.0029,82.7751,277.3382,0.00027311,4.063e-05,0.0,0 STARLINK-4797,1 53852U 22114AL  23050.95417396  .00004063  00000-0  27311-3 0  9997,2 53852  53.2164 249.0029 0001235  82.7751 277.3382 15.08852955 24368,6917.841,95.437,540.56,538.851,0.0
53852.0,STARLINK-4797,PAYLOAD,2023-02-20 22:44:48,15.0883658,6.92e-05,53.2166,244.5425,75.0319,285.075,-9.1833e-05,-1.749e-05,0.0,0 STARLINK-4797,1 53852U 22114AL  23051.94777800 -.00001749  00000-0 -91833-4 0  9997,2 53852  53.2166 244.5425 0000692  75.0319 285.0750 15.08836580 24519,6917.891,95.438,540.235,539.277,0.0
53852.0,STARLINK-4797,PAYLOAD,2023-02-21 00:20:11,15.088257,8.97e-05,53.2164,244.2446,79.8032,280.3061,-0.00027379,-4.641e-05,0.0,0 STARLINK-4797,1 53852U 22114AL  23052.01402260 -.00004641  00000-0 -27379-3 0  9998,2 53852  53.2164 244.2446 0000897  79.8032 280.3061 15.08825700 24524,6917.924,95.438,540.41,539.169,0.0
53852.0,STARLINK-4797,PAYLOAD,2023-02-21 21:00:12,15.08833909,0.0001004,53.2164,240.3788,84.3675,275.7432,0.00014937,2.09e-05,0.0,0 STARLINK-4797,1 53852U 22114AL  23052.87514938  .00002090  00000-0  14937-3 0  9998,2 53852  53.2164 240.3788 0001004  84.3675 275.7432 15.08833909 25199,6917.899,95.438,540.459,539.069,0.0
53852.0,STARLINK-4797,PAYLOAD,2023-02-22 00:10:59,15.08834513,9.41e-05,53.2165,239.7839,83.8595,276.2504,0.00065681,0.00010179,0.0,0 STARLINK-4797,1 53852U 22114AL  23053.00763248  .00010179  00000-0  65681-3 0  9993,2 53852  53.2165 239.7839 0000941  83.8595 276.2504 15.08834513 24673,6917.897,95.438,540.413,539.111,0.0
53852.0,STARLINK-4797,PAYLOAD,2023-02-22 12:54:04,15.08849548,8.56e-05,53.2167,237.4047,79.4423,280.6666,0.00086286,0.00013475,0.0,0 STARLINK-4797,1 53852U 22114AL  23053.53755194  .00013475  00000-0  86286-3 0  9998,2 53852  53.2167 237.4047 0000856  79.4423 280.6666 15.08849548 25298,6917.851,95.437,540.308,539.124,0.0
53852.0,STARLINK-4797,PAYLOAD,2023-02-22 20:50:59,15.08860722,8.31e-05,53.2169,235.918,77.6851,282.4234,0.00088412,0.00013819,0.0,0 STARLINK-4797,1 53852U 22114AL  23053.86874786  .00013819  00000-0  88412-3 0  9998,2 53852  53.2169 235.9180 0000831  77.6851 282.4234 15.08860722 25343,6917.817,95.436,540.257,539.107,0.0
53852.0,STARLINK-4797,PAYLOAD,2023-02-23 04:47:55,15.08857054,9.3e-05,53.2174,234.4306,85.4461,274.6638,0.0004611,7.062e-05,0.0,0 STARLINK-4797,1 53852U 22114AL  23054.19994533  .00007062  00000-0  46110-3 0  9990,2 53852  53.2174 234.4306 0000930  85.4461 274.6638 15.08857054 24857,6917.828,95.436,540.337,539.05,0.0
53852.0,STARLINK-4797,PAYLOAD,2023-02-23 20:41:45,15.08865366,8.58e-05,53.2168,231.4577,81.7756,278.3333,0.00047435,7.275e-05,0.0,0 STARLINK-4797,1 53852U 22114AL  23054.86233668  .00007275  00000-0  47435-3 0  9996,2 53852  53.2168 231.4577 0000858  81.7756 278.3333 15.08865366 25491,6917.803,95.436,540.261,539.074,0.0
53852.0,STARLINK-4797,PAYLOAD,2023-02-24 04:38:41,15.08849263,5.54e-05,53.2168,229.9708,91.9259,268.1796,-5.566e-05,-1.173e-05,0.0,0 STARLINK-4797,1 53852U 22114AL  23055.19353650 -.00001173  00000-0 -55660-4 0  9990,2 53852  53.2168 229.9708 0000554  91.9259 268.1796 15.08849263 25008,6917.852,95.437,540.1,539.334,0.0
53852.0,STARLINK-4797,PAYLOAD,2023-02-24 11:00:14,15.08846883,0.0001093,53.2169,228.7814,86.3416,273.7701,-1.498e-05,-5.26e-06,0.0,0 STARLINK-4797,1 53852U 22114AL  23055.45849829 -.00000526  00000-0 -14980-4 0  9998,2 53852  53.2169 228.7814 0001093  86.3416 273.7701 15.08846883 25582,6917.859,95.437,540.48,538.968,0.0
53852.0,STARLINK-4797,PAYLOAD,2023-02-24 18:57:09,15.08843179,9.66e-05,53.2174,227.2956,89.8091,270.3012,-5.5982e-05,-1.179e-05,0.0,0 STARLINK-4797,1 53852U 22114AL  23055.78969883 -.00001179  00000-0 -55982-4 0  9999,2 53852  53.2174 227.2956 0000966  89.8091 270.3012 15.08843179 25633,6917.871,95.437,540.404,539.067,0.0
53852.0,STARLINK-4797,PAYLOAD,2023-02-25 04:29:29,15.08836308,9.86e-05,53.2177,225.5103,81.1562,278.9542,-9.3168e-05,-1.77e-05,0.0,0 STARLINK-4797,1 53852U 22114AL  23056.18714184 -.00001770  00000-0 -93168-4 0  9991,2 53852  53.2177 225.5103 0000986  81.1562 278.9542 15.08836308 25156,6917.892,95.438,540.439,539.075,0.0
53852.0,STARLINK-4797,PAYLOAD,2023-02-25 17:12:34,15.08839991,9.47e-05,53.2176,223.1314,80.37,279.7399,0.0001527,2.143e-05,0.0,0 STARLINK-4797,1 53852U 22114AL  23056.71706320  .00002143  00000-0  15270-3 0  9993,2 53852  53.2176 223.1314 0000947  80.3700 279.7399 15.08839991 25773,6917.88,95.438,540.401,539.09,0.0
53852.0,STARLINK-4797,PAYLOAD,2023-02-26 10:41:48,15.08847625,9.92e-05,53.2164,219.8606,79.1828,280.9276,0.00051348,7.895e-05,0.0,0 STARLINK-4797,1 53852U 22114AL  23057.44570393  .00007895  00000-0  51348-3 0  9998,2 53852  53.2164 219.8606 0000992  79.1828 280.9276 15.08847625 25347,6917.857,95.437,540.408,539.036,0.0
53852.0,STARLINK-4797,PAYLOAD,2023-02-26 13:52:34,15.08852836,9.95e-05,53.216,219.2661,77.6477,282.4626,0.00063352,9.812e-05,0.0,0 STARLINK-4797,1 53852U 22114AL  23057.57818235  .00009812  00000-0  63352-3 0  9991,2 53852  53.2160 219.2661 0000995  77.6477 282.4626 15.08852836 25902,6917.841,95.437,540.394,539.018,0.0
53852.0,STARLINK-4797,PAYLOAD,2023-02-26 20:14:07,15.08863649,9.94e-05,53.2166,218.0761,78.4775,281.6329,0.00089612,0.00014012,0.0,0 STARLINK-4797,1 53852U 22114AL  23057.84313833  .00014012  00000-0  89612-3 0  9990,2 53852  53.2166 218.0761 0000994  78.4775 281.6329 15.08863649 25944,6917.808,95.436,540.361,538.985,0.0
53852.0,STARLINK-4797,PAYLOAD,2023-02-27 04:11:02,15.08848096,8.3e-05,53.2174,216.59,82.6266,277.482,0.00019722,2.853e-05,0.0,0 STARLINK-4797,1 53852U 22114AL  23058.17433891  .00002853  00000-0  19722-3 0  9999,2 53852  53.2174 216.5900 0000830  82.6266 277.4820 15.08848096 25456,6917.856,95.437,540.295,539.146,0.0
53852.0,STARLINK-4797,PAYLOAD,2023-02-27 16:54:07,15.08875696,9.25e-05,53.2167,214.2109,76.8443,283.2652,0.0010273,0.00016115,0.0,0 STARLINK-4797,1 53852U 22114AL  23058.70425168  .00016115  00000-0  10273-2 0  9993,2 53852  53.2167 214.2109 0000925  76.8443 283.2652 15.08875696 25534,6917.771,95.435,540.276,538.996,0.0
53852.0,STARLINK-4797,PAYLOAD,2023-02-28 13:34:09,15.0881754,0.0001141,53.2172,210.3458,96.2212,263.891,0.00052714,8.106e-05,0.0,0 STARLINK-4797,1 53852U 22114AL  23059.56538613  .00008106  00000-0  52714-3 0  9996,2 53852  53.2172 210.3458 0001141  96.2212 263.8910 15.08817540 26205,6917.949,95.439,540.603,539.025,0.0
53852.0,STARLINK-4797,PAYLOAD,2023-02-28 15:09:32,15.08824704,0.0001006,53.2172,210.0481,96.555,263.5557,2.6712e-05,1.37e-06,0.0,0 STARLINK-4797,1 53852U 22114AL  23059.63162534  .00000137  00000-0  26712-4 0  9995,2 53852  53.2172 210.0481 0001006  96.5550 263.5557 15.08824704 25670,6917.927,95.439,540.488,539.096,0.0
53852.0,STARLINK-4797,PAYLOAD,2023-03-01 16:35:43,15.0885414,0.0001318,53.2179,205.2914,56.9295,303.1824,0.0012315,0.00019373,0.0,0 STARLINK-4797,1 53852U 22114AL  23060.69147312  .00019373  00000-0  12315-2 0  9994,2 53852  53.2179 205.2914 0001318  56.9295 303.1824 15.08854140 25839,6917.837,95.437,540.614,538.79,0.0
53852.0,STARLINK-4797,PAYLOAD,2023-03-02 02:08:02,15.08839338,0.0002544,53.2175,203.5037,76.4858,283.6417,0.00013427,1.849e-05,0.0,0 STARLINK-4797,1 53852U 22114AL  23061.08891741  .00001849  00000-0  13427-3 0  9995,2 53852  53.2175 203.5037 0002544  76.4858 283.6417 15.08839338 25894,6917.882,95.438,541.507,537.988,0.0
53852.0,STARLINK-4797,PAYLOAD,2023-03-02 18:01:53,15.08862808,0.0001184,53.2164,200.5334,58.233,301.8777,0.001632,0.00025797,0.0,0 STARLINK-4797,1 53852U 22114AL  23061.75130794  .00025797  00000-0  16320-2 0  9995,2 53852  53.2164 200.5334 0001184  58.2330 301.8777 15.08862808 26533,6917.811,95.436,540.495,538.857,0.0
